start=new Date('2022-12-02T00:00:00.000Z').valueOf();
sats=[{"SITE":"AFETR","ARG_OF_PERICENTER":"63.5404","PERIAPSIS":"546.154","TLE_LINE2":"2 45206  53.0570 326.6460 0001506  63.5404 296.5739 15.06405547154480","NORAD_CAT_ID":"45206","EPOCH":"2022-12-01T16:45:37.363104","INCLINATION":"53.0570","PERIOD":"95.592","FILE":"3678231","OBJECT_NAME":"STARLINK-1209","REV_AT_EPOCH":"15448","CLASSIFICATION_TYPE":"U","BSTAR":"0.00010072000000","MEAN_MOTION_DOT":"0.00001219","DECAY_DATE":null,"EPHEMERIS_TYPE":"0","TIME_SYSTEM":"UTC","REF_FRAME":"TEME","OBJECT_TYPE":"PAYLOAD","OBJECT_ID":"2020-012AE","MEAN_ANOMALY":"296.5739","MEAN_MOTION":"15.06405547","GP_ID":"219301713","CENTER_NAME":"EARTH","ECCENTRICITY":"0.00015060","RA_OF_ASC_NODE":"326.6460","APOAPSIS":"548.240","LAUNCH_DATE":"2020-02-17","SEMIMAJOR_AXIS":"6925.332","MEAN_ELEMENT_THEORY":"SGP4","RCS_SIZE":"LARGE","TLE_LINE1":"1 45206U 20012AE  22335.69834911  .00001219  00000-0  10072-3 0  9994","MEAN_MOTION_DDOT":"0.0000000000000","COUNTRY_CODE":"US","ELEMENT_SET_NO":"999"},{"NORAD_CAT_ID":"45207","EPOCH":"2022-12-01T18:13:13.061280","TLE_LINE2":"2 45207  53.0566 346.3839 0001731  58.8030 301.3129 15.06394386155169","PERIAPSIS":"546.032","ARG_OF_PERICENTER":"58.8030","SITE":"AFETR","PERIOD":"95.592","FILE":"3678231","REV_AT_EPOCH":"15516","OBJECT_NAME":"STARLINK-1210","CLASSIFICATION_TYPE":"U","INCLINATION":"53.0566","BSTAR":"0.00001534600000","TIME_SYSTEM":"UTC","REF_FRAME":"TEME","DECAY_DATE":null,"EPHEMERIS_TYPE":"0","MEAN_MOTION_DOT":"-0.00000053","MEAN_MOTION":"15.06394386","MEAN_ANOMALY":"301.3129","OBJECT_TYPE":"PAYLOAD","OBJECT_ID":"2020-012AF","RA_OF_ASC_NODE":"346.3839","APOAPSIS":"548.430","LAUNCH_DATE":"2020-02-17","CENTER_NAME":"EARTH","ECCENTRICITY":"0.00017310","GP_ID":"219301960","MEAN_ELEMENT_THEORY":"SGP4","SEMIMAJOR_AXIS":"6925.366","MEAN_MOTION_DDOT":"0.0000000000000","COUNTRY_CODE":"US","ELEMENT_SET_NO":"999","TLE_LINE1":"1 45207U 20012AF  22335.75917895 -.00000053  00000-0  15346-4 0  9991","RCS_SIZE":"LARGE"},{"RCS_SIZE":"LARGE","TLE_LINE1":"1 45208U 20012AG  22335.74167526  .00001039  00000-0  90477-4 0  9991","ELEMENT_SET_NO":"999","MEAN_MOTION_DDOT":"0.0000000000000","COUNTRY_CODE":"US","SEMIMAJOR_AXIS":"6927.844","MEAN_ELEMENT_THEORY":"SGP4","GP_ID":"219302711","CENTER_NAME":"EARTH","ECCENTRICITY":"0.00017840","LAUNCH_DATE":"2020-02-17","APOAPSIS":"550.945","RA_OF_ASC_NODE":"346.4654","OBJECT_ID":"2020-012AG","OBJECT_TYPE":"PAYLOAD","MEAN_MOTION":"15.05586039","MEAN_ANOMALY":"282.4695","MEAN_MOTION_DOT":"0.00001039","EPHEMERIS_TYPE":"0","DECAY_DATE":null,"REF_FRAME":"TEME","TIME_SYSTEM":"UTC","BSTAR":"0.00009047700000","INCLINATION":"53.0014","CLASSIFICATION_TYPE":"U","FILE":"3678231","PERIOD":"95.644","OBJECT_NAME":"STARLINK-1211","REV_AT_EPOCH":"15504","SITE":"AFETR","PERIAPSIS":"548.473","ARG_OF_PERICENTER":"77.6492","TLE_LINE2":"2 45208  53.0014 346.4654 0001784  77.6492 282.4695 15.05586039155044","NORAD_CAT_ID":"45208","EPOCH":"2022-12-01T17:48:00.742464"},{"MEAN_ANOMALY":"297.7422","MEAN_MOTION":"15.06400065","OBJECT_TYPE":"PAYLOAD","OBJECT_ID":"2020-012AJ","RA_OF_ASC_NODE":"346.0777","APOAPSIS":"548.314","LAUNCH_DATE":"2020-02-17","ECCENTRICITY":"0.00015890","CENTER_NAME":"EARTH","GP_ID":"219302957","MEAN_ELEMENT_THEORY":"SGP4","SEMIMAJOR_AXIS":"6925.348","COUNTRY_CODE":"US","MEAN_MOTION_DDOT":"0.0000000000000","ELEMENT_SET_NO":"999","TLE_LINE1":"1 45210U 20012AJ  22335.82920375  .00002127  00000-0  16165-3 0  9992","RCS_SIZE":"LARGE","NORAD_CAT_ID":"45210","EPOCH":"2022-12-01T19:54:03.204000","TLE_LINE2":"2 45210  53.0556 346.0777 0001589  62.3728 297.7422 15.06400065155060","PERIAPSIS":"546.113","ARG_OF_PERICENTER":"62.3728","SITE":"AFETR","PERIOD":"95.592","FILE":"3678231","OBJECT_NAME":"STARLINK-1219","REV_AT_EPOCH":"15506","CLASSIFICATION_TYPE":"U","INCLINATION":"53.0556","BSTAR":"0.00016165000000","TIME_SYSTEM":"UTC","REF_FRAME":"TEME","EPHEMERIS_TYPE":"0","DECAY_DATE":null,"MEAN_MOTION_DOT":"0.00002127"},{"TLE_LINE1":"1 45212U 20012AL  22335.72969724 -.00001032  00000-0 -50423-4 0  9996","RCS_SIZE":"LARGE","ELEMENT_SET_NO":"999","MEAN_MOTION_DDOT":"0.0000000000000","COUNTRY_CODE":"US","SEMIMAJOR_AXIS":"6925.356","MEAN_ELEMENT_THEORY":"SGP4","GP_ID":"219301215","LAUNCH_DATE":"2020-02-17","RA_OF_ASC_NODE":"346.5295","APOAPSIS":"548.380","ECCENTRICITY":"0.00016740","CENTER_NAME":"EARTH","OBJECT_ID":"2020-012AL","OBJECT_TYPE":"PAYLOAD","MEAN_MOTION":"15.06397597","MEAN_ANOMALY":"296.1065","EPHEMERIS_TYPE":"0","DECAY_DATE":null,"MEAN_MOTION_DOT":"-0.00001032","REF_FRAME":"TEME","TIME_SYSTEM":"UTC","BSTAR":"-0.00005042300000","INCLINATION":"53.0572","CLASSIFICATION_TYPE":"U","FILE":"3678231","OBJECT_NAME":"STARLINK-1231","PERIOD":"95.592","REV_AT_EPOCH":"15511","ARG_OF_PERICENTER":"64.0096","PERIAPSIS":"546.062","SITE":"AFETR","NORAD_CAT_ID":"45212","EPOCH":"2022-12-01T17:30:45.841536","TLE_LINE2":"2 45212  53.0572 346.5295 0001674  64.0096 296.1065 15.06397597155119"},{"TLE_LINE2":"2 45213  53.0578 275.1964 0004922  58.7536 301.3951 15.43798484156164","NORAD_CAT_ID":"45213","EPOCH":"2022-12-01T13:19:32.970144","SITE":"AFETR","ARG_OF_PERICENTER":"58.7536","PERIAPSIS":"431.559","OBJECT_NAME":"STARLINK-1232","FILE":"3677495","PERIOD":"93.276","REV_AT_EPOCH":"15616","CLASSIFICATION_TYPE":"U","INCLINATION":"53.0578","BSTAR":"0.00030742000000","TIME_SYSTEM":"UTC","REF_FRAME":"TEME","MEAN_MOTION_DOT":"0.00013745","DECAY_DATE":null,"EPHEMERIS_TYPE":"0","MEAN_ANOMALY":"301.3951","MEAN_MOTION":"15.43798484","OBJECT_TYPE":"PAYLOAD","OBJECT_ID":"2020-012AM","ECCENTRICITY":"0.00049220","CENTER_NAME":"EARTH","RA_OF_ASC_NODE":"275.1964","APOAPSIS":"438.266","LAUNCH_DATE":"2020-02-17","GP_ID":"219263916","MEAN_ELEMENT_THEORY":"SGP4","SEMIMAJOR_AXIS":"6813.048","MEAN_MOTION_DDOT":"0.0000000000000","COUNTRY_CODE":"US","ELEMENT_SET_NO":"999","RCS_SIZE":"LARGE","TLE_LINE1":"1 45213U 20012AM  22335.55524271  .00013745  00000-0  30742-3 0  9995"},{"TIME_SYSTEM":"UTC","REF_FRAME":"TEME","DECAY_DATE":null,"EPHEMERIS_TYPE":"0","MEAN_MOTION_DOT":"0.00001702","BSTAR":"0.00013311000000","PERIOD":"95.592","FILE":"3678231","OBJECT_NAME":"STARLINK-1233","REV_AT_EPOCH":"15516","CLASSIFICATION_TYPE":"U","INCLINATION":"53.0563","NORAD_CAT_ID":"45214","EPOCH":"2022-12-01T18:27:45.896544","TLE_LINE2":"2 45214  53.0563 346.3308 0001768  58.3946 301.7215 15.06406324155162","ARG_OF_PERICENTER":"58.3946","PERIAPSIS":"545.970","SITE":"AFETR","MEAN_MOTION_DDOT":"0.0000000000000","COUNTRY_CODE":"US","ELEMENT_SET_NO":"999","TLE_LINE1":"1 45214U 20012AN  22335.76928121  .00001702  00000-0  13311-3 0  9994","RCS_SIZE":"LARGE","MEAN_ELEMENT_THEORY":"SGP4","SEMIMAJOR_AXIS":"6925.329","RA_OF_ASC_NODE":"346.3308","APOAPSIS":"548.419","LAUNCH_DATE":"2020-02-17","CENTER_NAME":"EARTH","ECCENTRICITY":"0.00017680","GP_ID":"219302212","MEAN_MOTION":"15.06406324","MEAN_ANOMALY":"301.7215","OBJECT_TYPE":"PAYLOAD","OBJECT_ID":"2020-012AN"},{"TLE_LINE2":"2 45215  53.0550 346.3582 0001812  56.2708 303.8453 15.06400259155108","NORAD_CAT_ID":"45215","EPOCH":"2022-12-01T18:23:49.633152","SITE":"AFETR","PERIAPSIS":"545.958","ARG_OF_PERICENTER":"56.2708","PERIOD":"95.592","FILE":"3678231","REV_AT_EPOCH":"15510","OBJECT_NAME":"STARLINK-1245","CLASSIFICATION_TYPE":"U","INCLINATION":"53.0550","BSTAR":"0.00012007000000","TIME_SYSTEM":"UTC","REF_FRAME":"TEME","MEAN_MOTION_DOT":"0.00001507","DECAY_DATE":null,"EPHEMERIS_TYPE":"0","MEAN_ANOMALY":"303.8453","MEAN_MOTION":"15.06400259","OBJECT_TYPE":"PAYLOAD","OBJECT_ID":"2020-012AP","ECCENTRICITY":"0.00018120","CENTER_NAME":"EARTH","APOAPSIS":"548.468","RA_OF_ASC_NODE":"346.3582","LAUNCH_DATE":"2020-02-17","GP_ID":"219302458","MEAN_ELEMENT_THEORY":"SGP4","SEMIMAJOR_AXIS":"6925.348","MEAN_MOTION_DDOT":"0.0000000000000","COUNTRY_CODE":"US","ELEMENT_SET_NO":"999","RCS_SIZE":"LARGE","TLE_LINE1":"1 45215U 20012AP  22335.76654668  .00001507  00000-0  12007-3 0  9991"},{"INCLINATION":"53.0545","PERIOD":"95.592","FILE":"3678231","OBJECT_NAME":"STARLINK-1271","REV_AT_EPOCH":"15516","CLASSIFICATION_TYPE":"U","SITE":"AFETR","ARG_OF_PERICENTER":"62.7665","PERIAPSIS":"546.072","TLE_LINE2":"2 45217  53.0545 346.4712 0001665  62.7665 297.3493 15.06396318155167","NORAD_CAT_ID":"45217","EPOCH":"2022-12-01T17:46:40.384416","MEAN_MOTION_DOT":"0.00001190","DECAY_DATE":null,"EPHEMERIS_TYPE":"0","TIME_SYSTEM":"UTC","REF_FRAME":"TEME","BSTAR":"0.00009878500000","GP_ID":"219301714","ECCENTRICITY":"0.00016650","CENTER_NAME":"EARTH","APOAPSIS":"548.378","RA_OF_ASC_NODE":"346.4712","LAUNCH_DATE":"2020-02-17","OBJECT_TYPE":"PAYLOAD","OBJECT_ID":"2020-012AR","MEAN_ANOMALY":"297.3493","MEAN_MOTION":"15.06396318","RCS_SIZE":"LARGE","TLE_LINE1":"1 45217U 20012AR  22335.74074519  .00001190  00000-0  98785-4 0  9998","COUNTRY_CODE":"US","MEAN_MOTION_DDOT":"0.0000000000000","ELEMENT_SET_NO":"999","SEMIMAJOR_AXIS":"6925.360","MEAN_ELEMENT_THEORY":"SGP4"},{"CENTER_NAME":"EARTH","ECCENTRICITY":"0.00015090","LAUNCH_DATE":"2020-02-17","APOAPSIS":"548.266","RA_OF_ASC_NODE":"326.7706","GP_ID":"219301961","MEAN_ANOMALY":"285.3134","MEAN_MOTION":"15.06397571","OBJECT_ID":"2020-012AT","OBJECT_TYPE":"PAYLOAD","ELEMENT_SET_NO":"999","MEAN_MOTION_DDOT":"0.0000000000000","COUNTRY_CODE":"US","RCS_SIZE":"LARGE","TLE_LINE1":"1 45219U 20012AT  22335.67256256 -.00001765  00000-0 -99654-4 0  9998","MEAN_ELEMENT_THEORY":"SGP4","SEMIMAJOR_AXIS":"6925.356","CLASSIFICATION_TYPE":"U","PERIOD":"95.592","FILE":"3678231","REV_AT_EPOCH":"15544","OBJECT_NAME":"STARLINK-1187","INCLINATION":"53.0536","TLE_LINE2":"2 45219  53.0536 326.7706 0001509  74.8022 285.3134 15.06397571155443","NORAD_CAT_ID":"45219","EPOCH":"2022-12-01T16:08:29.405184","SITE":"AFETR","ARG_OF_PERICENTER":"74.8022","PERIAPSIS":"546.176","REF_FRAME":"TEME","TIME_SYSTEM":"UTC","MEAN_MOTION_DOT":"-0.00001765","DECAY_DATE":null,"EPHEMERIS_TYPE":"0","BSTAR":"-0.00009965400000"}];
